ONEWEB-0661             
1 55821U 23029AB  23281.86235186  .00000270  00000+0  69436-3 0  9991
2 55821  87.8969 125.2821 0002266  82.6587 277.4800 13.14502008 30334
ONEWEB-0662             
1 55822U 23029AC  23281.82004081 -.00000036  00000+0 -13253-3 0  9994
2 55822  87.8969 125.2979 0002190  75.0431 285.0941 13.14503557 30374
ONEWEB-0663             
1 55823U 23029AD  23282.25002315  .00000016  00000+0  00000+0 0  9999
2 55823  87.4810 110.4608 0003223  70.8559  68.0694 13.68562632 32142
ONEWEB-0664             
1 55824U 23029AE  23282.25002315  .00000016  00000+0  00000+0 0  9990
2 55824  87.4844 110.4700 0002612  64.5859 327.7667 13.69082593 32146
ONEWEB-0665             
1 55825U 23029AF  23281.85808158  .00000255  00000+0  65279-3 0  9993
2 55825  87.8967 125.2581 0002149  76.9789 283.1580 13.14509345 30351
ONEWEB-0666             
1 55826U 23029AG  23282.25002315  .00000016  00000+0  00000+0 0  9992
2 55826  87.4789 110.4738 0002420  46.4329 188.8012 13.69808541 32144
ONEWEB-0667             
1 55827U 23029AH  23282.25002315  .00000016  00000+0  00000+0 0  9993
2 55827  87.4384 110.5037 0002307  80.8240 277.1953 13.71953074 32137
ONEWEB-0669             
1 55828U 23029AJ  23282.25002315  .00000016  00000+0  00000+0 0  9994
2 55828  87.4762 110.4462 0002999  49.2529 154.4865 13.69061142 32148
